{"type": "FeatureCollection", "features": [ {"type": "Feature", "properties": {"norad_id": 33867, "name": "IRIDIUM 33 DEB", "group": "iridium-33-debris", "lat": 5.70934341853064, "lon": -8.579564900653457, "alt_km": 377.2056481055115, "timestamp": "2025-12-10T21:43:22.475653+00:00", "meta": {"OBJECT_NAME": "IRIDIUM 33 DEB", "OBJECT_ID": "1997-051AL", "EPOCH": "2025-12-10T10:56:50.694720", "MEAN_MOTION": 15.63354376, "ECCENTRICITY": 0.00131668, "INCLINATION": 86.364, "RA_OF_ASC_NODE": 351.2878, "ARG_OF_PERICENTER": 91.1844, "MEAN_ANOMALY": 269.0932, "EPHEMERIS_TYPE": 0, "CLASSIFICATION_TYPE": "U", "NORAD_CAT_ID": 33867, "ELEMENT_SET_NO": 999, "REV_AT_EPOCH": 89475, "BSTAR": 0.0092111059, "MEAN_MOTION_DOT": 0.00931891, "MEAN_MOTION_DDOT": 0}, "tle": {"line1": "1 33867U 97051AL  25344.45614230  .00931891  00000+0  92111-2 0  9998", "line2": "2 33867  86.3640 351.2878 0013166  91.1844 269.0932 15.63354376894751"}}, "geometry": {"type": "Point", "coordinates": [-8.579564900653457, 5.70934341853064]}}, {"type": "Feature", "properties": {"norad_id": 33870, "name": "IRIDIUM 33 DEB", "group": "iridium-33-debris", "lat": 36.89973705126403, "lon": -123.68160690918512, "alt_km": 725.3536596149943, "timestamp": "2025-12-10T21:43:22.475664+00:00", "meta": {"OBJECT_NAME": "IRIDIUM 33 DEB", "OBJECT_ID": "1997-051AP", "EPOCH": "2025-12-10T06:24:18.912384", "MEAN_MOTION": 14.45830234, "ECCENTRICITY": 0.0021205, "INCLINATION": 86.3744, "RA_OF_ASC_NODE": 59.3205, "ARG_OF_PERICENTER": 186.1349, "MEAN_ANOMALY": 237.0541, "EPHEMERIS_TYPE": 0, "CLASSIFICATION_TYPE": "U", "NORAD_CAT_ID": 33870, "ELEMENT_SET_NO": 999, "REV_AT_EPOCH": 88101, "BSTAR": 0.0012181, "MEAN_MOTION_DOT": 4.353e-05, "MEAN_MOTION_DDOT": 0}, "tle": {"line1": "1 33870U 97051AP  25344.26688556  .00004353  00000+0  12181-2 0  9996", "line2": "2 33870  86.3744  59.3205 0021205 186.1349 237.0541 14.45830234881015"}}, "geometry": {"type": "Point", "coordinates": [-123.68160690918512, 36.89973705126403]}}, {"type": "Feature", "properties": {"norad_id": 33881, "name": "IRIDIUM 33 DEB", "group": "iridium-33-debris", "lat": -58.53787963164178, "lon": 101.61151796294544, "alt_km": 733.7673184346131, "timestamp": "2025-12-10T21:43:22.475681+00:00", "meta": {"OBJECT_NAME": "IRIDIUM 33 DEB", "OBJECT_ID": "1997-051BA", "EPOCH": "2025-12-10T09:03:19.668672", "MEAN_MOTION": 14.56501004, "ECCENTRICITY": 0.00614455, "INCLINATION": 86.3864, "RA_OF_ASC_NODE": 107.7688, "ARG_OF_PERICENTER": 182.2836, "MEAN_ANOMALY": 232.7021, "EPHEMERIS_TYPE": 0, "CLASSIFICATION_TYPE": "U", "NORAD_CAT_ID": 33881, "ELEMENT_SET_NO": 999, "REV_AT_EPOCH": 87466, "BSTAR": 0.0031971955, "MEAN_MOTION_DOT": 0.00014624, "MEAN_MOTION_DDOT": 0}, "tle": {"line1": "1 33881U 97051BA  25344.37731098  .00014624  00000+0  31972-2 0  9991", "line2": "2 33881  86.3864 107.7688 0061445 182.2836 232.7021 14.56501004874661"}}, "geometry": {"type": "Point", "coordinates": [101.61151796294544, -58.53787963164178]}}, {"type": "Feature", "properties": {"norad_id": 33884, "name": "IRIDIUM 33 DEB", "group": "iridium-33-debris", "lat": 69.68889694761886, "lon": -179.23103227635463, "alt_km": 636.2470073830054, "timestamp": "2025-12-10T21:43:22.475693+00:00", "meta": {"OBJECT_NAME": "IRIDIUM 33 DEB", "OBJECT_ID": "1997-051BD", "EPOCH": "2025-12-10T08:19:18.691104", "MEAN_MOTION": 14.77350899, "ECCENTRICITY": 0.00099408, "INCLINATION": 86.3695, "RA_OF_ASC_NODE": 10.8982, "ARG_OF_PERICENTER": 332.9342, "MEAN_ANOMALY": 49.1777, "EPHEMERIS_TYPE": 0, "CLASSIFICATION_TYPE": "U", "NORAD_CAT_ID": 33884, "ELEMENT_SET_NO": 999, "REV_AT_EPOCH": 88812, "BSTAR": 0.0020634712, "MEAN_MOTION_DOT": 0.00014711, "MEAN_MOTION_DDOT": 0}, "tle": {"line1": "1 33884U 97051BD  25344.34674411  .00014711  00000+0  20635-2 0  9997", "line2": "2 33884  86.3695  10.8982 0009940 332.9342  49.1777 14.77350899888126"}}, "geometry": {"type": "Point", "coordinates": [-179.23103227635463, 69.68889694761886]}}, {"type": "Feature", "properties": {"norad_id": 33886, "name": "IRIDIUM 33 DEB", "group": "iridium-33-debris", "lat": -51.49252359841359, "lon": 63.44117608372982, "alt_km": 774.1609086756835, "timestamp": "2025-12-10T21:43:22.475707+00:00", "meta": {"OBJECT_NAME": "IRIDIUM 33 DEB", "OBJECT_ID": "1997-051BF", "EPOCH": "2025-12-10T11:58:44.159808", "MEAN_MOTION": 14.36047962, "ECCENTRICITY": 0.00121754, "INCLINATION": 86.383, "RA_OF_ASC_NODE": 68.1718, "ARG_OF_PERICENTER": 250.4448, "MEAN_ANOMALY": 120.2843, "EPHEMERIS_TYPE": 0, "CLASSIFICATION_TYPE": "U", "NORAD_CAT_ID": 33886, "ELEMENT_SET_NO": 999, "REV_AT_EPOCH": 88020, "BSTAR": 0.00032782279, "MEAN_MOTION_DOT": 9.73e-06, "MEAN_MOTION_DDOT": 0}, "tle": {"line1": "1 33886U 97051BF  25344.49912222  .00000973  00000+0  32782-3 0  9992", "line2": "2 33886  86.3830  68.1718 0012175 250.4448 120.2843 14.36047962880202"}}, "geometry": {"type": "Point", "coordinates": [63.44117608372982, -51.49252359841359]}}, {"type": "Feature", "properties": {"norad_id": 33887, "name": "IRIDIUM 33 DEB", "group": "iridium-33-debris", "lat": -56.752737677921495, "lon": -170.15912898452413, "alt_km": 771.8238144768802, "timestamp": "2025-12-10T21:43:22.475718+00:00", "meta": {"OBJECT_NAME": "IRIDIUM 33 DEB", "OBJECT_ID": "1997-051BG", "EPOCH": "2025-12-10T09:13:38.157024", "MEAN_MOTION": 14.37217786, "ECCENTRICITY": 0.00042565, "INCLINATION": 86.3045, "RA_OF_ASC_NODE": 4.4073, "ARG_OF_PERICENTER": 237.1767, "MEAN_ANOMALY": 187.5472, "EPHEMERIS_TYPE": 0, "CLASSIFICATION_TYPE": "U", "NORAD_CAT_ID": 33887, "ELEMENT_SET_NO": 999, "REV_AT_EPOCH": 88131, "BSTAR": 0.00022350195, "MEAN_MOTION_DOT": 6.85e-06, "MEAN_MOTION_DDOT": 0}, "tle": {"line1": "1 33887U 97051BG  25344.38446941  .00000685  00000+0  22350-3 0  9991", "line2": "2 33887  86.3045   4.4073 0004256 237.1767 187.5472 14.37217786881316"}}, "geometry": {"type": "Point", "coordinates": [-170.15912898452413, -56.752737677921495]}}, {"type": "Feature", "properties": {"norad_id": 33953, "name": "IRIDIUM 33 DEB", "group": "iridium-33-debris", "lat": -27.143260365861646, "lon": 52.717597802735014, "alt_km": 723.5342829567544, "timestamp": "2025-12-10T21:43:22.475728+00:00", "meta": {"OBJECT_NAME": "IRIDIUM 33 DEB", "OBJECT_ID": "1997-051BN", "EPOCH": "2025-12-09T23:18:17.054208", "MEAN_MOTION": 14.5527898, "ECCENTRICITY": 0.00184582, "INCLINATION": 86.384, "RA_OF_ASC_NODE": 54.9808, "ARG_OF_PERICENTER": 111.2598, "MEAN_ANOMALY": 11.2257, "EPHEMERIS_TYPE": 0, "CLASSIFICATION_TYPE": "U", "NORAD_CAT_ID": 33953, "ELEMENT_SET_NO": 999, "REV_AT_EPOCH": 88263, "BSTAR": 0.0016887129, "MEAN_MOTION_DOT": 7.353e-05, "MEAN_MOTION_DDOT": 0}, "tle": {"line1": "1 33953U 97051BN  25343.97103072  .00007353  00000+0  16887-2 0  9990", "line2": "2 33953  86.3840  54.9808 0018458 111.2598  11.2257 14.55278980882635"}}, "geometry": {"type": "Point", "coordinates": [52.717597802735014, -27.143260365861646]}}, {"type": "Feature", "properties": {"norad_id": 33960, "name": "IRIDIUM 33 DEB", "group": "iridium-33-debris", "lat": -59.21016438560746, "lon": -75.93447805068324, "alt_km": 623.6571317492899, "timestamp": "2025-12-10T21:43:22.475739+00:00", "meta": {"OBJECT_NAME": "IRIDIUM 33 DEB", "OBJECT_ID": "1997-051BV", "EPOCH": "2025-12-10T14:42:23.035968", "MEAN_MOTION": 14.85002414, "ECCENTRICITY": 0.00074882, "INCLINATION": 86.2533, "RA_OF_ASC_NODE": 290.517, "ARG_OF_PERICENTER": 65.6834, "MEAN_ANOMALY": 113.1281, "EPHEMERIS_TYPE": 0, "CLASSIFICATION_TYPE": "U", "NORAD_CAT_ID": 33960, "ELEMENT_SET_NO": 999, "REV_AT_EPOCH": 88835, "BSTAR": 0.0050642782, "MEAN_MOTION_DOT": 0.00043449, "MEAN_MOTION_DDOT": 0}, "tle": {"line1": "1 33960U 97051BV  25344.61276662  .00043449  00000+0  50643-2 0  9990", "line2": "2 33960  86.2533 290.5170 0007488  65.6834 113.1281 14.85002414888351"}}, "geometry": {"type": "Point", "coordinates": [-75.93447805068324, -59.21016438560746]}}, {"type": "Feature", "properties": {"norad_id": 33966, "name": "IRIDIUM 33 DEB", "group": "iridium-33-debris", "lat": 43.040009407093685, "lon": -136.56302104394675, "alt_km": 720.8109329913796, "timestamp": "2025-12-10T21:43:22.475750+00:00", "meta": {"OBJECT_NAME": "IRIDIUM 33 DEB", "OBJECT_ID": "1997-051CB", "EPOCH": "2025-12-10T13:26:05.416224", "MEAN_MOTION": 14.49580094, "ECCENTRICITY": 0.00071516, "INCLINATION": 86.3923, "RA_OF_ASC_NODE": 46.9627, "ARG_OF_PERICENTER": 195.5015, "MEAN_ANOMALY": 300.3597, "EPHEMERIS_TYPE": 0, "CLASSIFICATION_TYPE": "U", "NORAD_CAT_ID": 33966, "ELEMENT_SET_NO": 999, "REV_AT_EPOCH": 88410, "BSTAR": 0.00084733131, "MEAN_MOTION_DOT": 3.271e-05, "MEAN_MOTION_DDOT": 0}, "tle": {"line1": "1 33966U 97051CB  25344.55978491  .00003271  00000+0  84733-3 0  9995", "line2": "2 33966  86.3923  46.9627 0007151 195.5015 300.3597 14.49580094884106"}}, "geometry": {"type": "Point", "coordinates": [-136.56302104394675, 43.040009407093685]}}, {"type": "Feature", "properties": {"norad_id": 34071, "name": "IRIDIUM 33 DEB", "group": "iridium-33-debris", "lat": -24.25268632534869, "lon": -159.72445301738657, "alt_km": 733.292696569958, "timestamp": "2025-12-10T21:43:22.475761+00:00", "meta": {"OBJECT_NAME": "IRIDIUM 33 DEB", "OBJECT_ID": "1997-051CE", "EPOCH": "2025-12-10T12:30:01.392480", "MEAN_MOTION": 14.49448907, "ECCENTRICITY": 0.00098696, "INCLINATION": 86.3457, "RA_OF_ASC_NODE": 18.7926, "ARG_OF_PERICENTER": 113.5501, "MEAN_ANOMALY": 246.6741, "EPHEMERIS_TYPE": 0, "CLASSIFICATION_TYPE": "U", "NORAD_CAT_ID": 34071, "ELEMENT_SET_NO": 999, "REV_AT_EPOCH": 88302, "BSTAR": 0.00087237659, "MEAN_MOTION_DOT": 3.36e-05, "MEAN_MOTION_DDOT": 0}, "tle": {"line1": "1 34071U 97051CE  25344.52084945  .00003360  00000+0  87238-3 0  9994", "line2": "2 34071  86.3457  18.7926 0009869 113.5501 246.6741 14.49448907883022"}}, "geometry": {"type": "Point", "coordinates": [-159.72445301738657, -24.25268632534869]}}]}